{"type": "FeatureCollection", "features": [ {"type": "Feature", "properties": {"norad_id": 44622, "name": "GAOFEN-10R", "group": "resource", "lat": 65.79049315055437, "lon": -81.61015457912764, "alt_km": 609.4803881000762, "timestamp": "2025-12-15T04:01:20.100517+00:00", "meta": {"OBJECT_NAME": "GAOFEN-10R", "OBJECT_ID": "2019-066A", "EPOCH": "2025-12-14T08:17:12.311232", "MEAN_MOTION": 14.82800543, "ECCENTRICITY": 0.00077634, "INCLINATION": 98.0276, "RA_OF_ASC_NODE": 295.8578, "ARG_OF_PERICENTER": 37.4184, "MEAN_ANOMALY": 322.7569, "EPHEMERIS_TYPE": 0, "CLASSIFICATION_TYPE": "U", "NORAD_CAT_ID": 44622, "ELEMENT_SET_NO": 999, "REV_AT_EPOCH": 33498, "BSTAR": 0.00028940848, "MEAN_MOTION_DOT": 2.287e-05, "MEAN_MOTION_DDOT": 0}, "tle": {"line1": "1 44622U 19066A   25348.34528138  .00002287  00000+0  28941-3 0  9991", "line2": "2 44622  98.0276 295.8578 0007763  37.4184 322.7569 14.82800543334982"}}, "geometry": {"type": "Point", "coordinates": [-81.61015457912764, 65.79049315055437]}}, {"type": "Feature", "properties": {"norad_id": 44804, "name": "CARTOSAT-3", "group": "resource", "lat": -7.932951623154764, "lon": -132.32570813187237, "alt_km": 516.1453091968688, "timestamp": "2025-12-15T04:01:20.100527+00:00", "meta": {"OBJECT_NAME": "CARTOSAT-3", "OBJECT_ID": "2019-081A", "EPOCH": "2025-12-14T08:13:45.713280", "MEAN_MOTION": 15.19169202, "ECCENTRICITY": 0.00141637, "INCLINATION": 97.4585, "RA_OF_ASC_NODE": 47.9061, "ARG_OF_PERICENTER": 78.0352, "MEAN_ANOMALY": 282.247, "EPHEMERIS_TYPE": 0, "CLASSIFICATION_TYPE": "U", "NORAD_CAT_ID": 44804, "ELEMENT_SET_NO": 999, "REV_AT_EPOCH": 33540, "BSTAR": 0.00019038504, "MEAN_MOTION_DOT": 3.944e-05, "MEAN_MOTION_DDOT": 0}, "tle": {"line1": "1 44804U 19081A   25348.34289020  .00003944  00000+0  19039-3 0  9993", "line2": "2 44804  97.4585  47.9061 0014163  78.0352 282.2470 15.19169202335403"}}, "geometry": {"type": "Point", "coordinates": [-132.32570813187237, -7.932951623154764]}}, {"type": "Feature", "properties": {"norad_id": 44819, "name": "GAOFEN-12 01", "group": "resource", "lat": -44.16428401036066, "lon": 3.048235368602223, "alt_km": 634.0257585607478, "timestamp": "2025-12-15T04:01:20.100537+00:00", "meta": {"OBJECT_NAME": "GAOFEN-12 01", "OBJECT_ID": "2019-082A", "EPOCH": "2025-12-14T07:08:21.039072", "MEAN_MOTION": 14.80659587, "ECCENTRICITY": 0.00014002, "INCLINATION": 97.8126, "RA_OF_ASC_NODE": 354.5376, "ARG_OF_PERICENTER": 224.0642, "MEAN_ANOMALY": 136.0459, "EPHEMERIS_TYPE": 0, "CLASSIFICATION_TYPE": "U", "NORAD_CAT_ID": 44819, "ELEMENT_SET_NO": 999, "REV_AT_EPOCH": 32673, "BSTAR": 9.9228736e-05, "MEAN_MOTION_DOT": 7.12e-06, "MEAN_MOTION_DDOT": 0}, "tle": {"line1": "1 44819U 19082A   25348.29746573  .00000712  00000+0  99229-4 0  9995", "line2": "2 44819  97.8126 354.5376 0001400 224.0642 136.0459 14.80659587326731"}}, "geometry": {"type": "Point", "coordinates": [3.048235368602223, -44.16428401036066]}}, {"type": "Feature", "properties": {"norad_id": 44873, "name": "CSG-1", "group": "resource", "lat": 76.87757134056872, "lon": 134.00030942647066, "alt_km": 614.2441637751044, "timestamp": "2025-12-15T04:01:20.100548+00:00", "meta": {"OBJECT_NAME": "CSG-1", "OBJECT_ID": "2019-092A", "EPOCH": "2025-12-14T08:13:19.946208", "MEAN_MOTION": 14.82167205, "ECCENTRICITY": 0.00014338, "INCLINATION": 97.881, "RA_OF_ASC_NODE": 169.6427, "ARG_OF_PERICENTER": 84.4736, "MEAN_ANOMALY": 275.6641, "EPHEMERIS_TYPE": 0, "CLASSIFICATION_TYPE": "U", "NORAD_CAT_ID": 44873, "ELEMENT_SET_NO": 999, "REV_AT_EPOCH": 32409, "BSTAR": 0.00011442255, "MEAN_MOTION_DOT": 8.59e-06, "MEAN_MOTION_DDOT": 0}, "tle": {"line1": "1 44873U 19092A   25348.34259197  .00000859  00000+0  11442-3 0  9995", "line2": "2 44873  97.8810 169.6427 0001433  84.4736 275.6641 14.82167205324094"}}, "geometry": {"type": "Point", "coordinates": [134.00030942647066, 76.87757134056872]}}, {"type": "Feature", "properties": {"norad_id": 46277, "name": "NEMO-HD", "group": "resource", "lat": 25.664777016716855, "lon": 44.741549415385045, "alt_km": 443.1341177768545, "timestamp": "2025-12-15T04:01:20.100558+00:00", "meta": {"OBJECT_NAME": "NEMO-HD", "OBJECT_ID": "2020-061F", "EPOCH": "2025-12-14T07:38:32.220672", "MEAN_MOTION": 15.40370239, "ECCENTRICITY": 0.00017844, "INCLINATION": 97.2216, "RA_OF_ASC_NODE": 47.3962, "ARG_OF_PERICENTER": 54.8556, "MEAN_ANOMALY": 305.2857, "EPHEMERIS_TYPE": 0, "CLASSIFICATION_TYPE": "U", "NORAD_CAT_ID": 46277, "ELEMENT_SET_NO": 999, "REV_AT_EPOCH": 29348, "BSTAR": 0.00030314298, "MEAN_MOTION_DOT": 0.00012166, "MEAN_MOTION_DDOT": 0}, "tle": {"line1": "1 46277U 20061F   25348.31842848  .00012166  00000+0  30314-3 0  9994", "line2": "2 46277  97.2216  47.3962 0001784  54.8556 305.2857 15.40370239293489"}}, "geometry": {"type": "Point", "coordinates": [44.741549415385045, 25.664777016716855]}}, {"type": "Feature", "properties": {"norad_id": 46984, "name": "SENTINEL-6A", "group": "resource", "lat": 41.32379553934286, "lon": -45.74933144784033, "alt_km": 1337.683718375396, "timestamp": "2025-12-15T04:01:20.100569+00:00", "meta": {"OBJECT_NAME": "SENTINEL-6A", "OBJECT_ID": "2020-086A", "EPOCH": "2025-12-14T04:50:25.535616", "MEAN_MOTION": 12.80930703, "ECCENTRICITY": 0.00077281, "INCLINATION": 66.0389, "RA_OF_ASC_NODE": 159.2715, "ARG_OF_PERICENTER": 269.2435, "MEAN_ANOMALY": 90.7695, "EPHEMERIS_TYPE": 0, "CLASSIFICATION_TYPE": "U", "NORAD_CAT_ID": 46984, "ELEMENT_SET_NO": 999, "REV_AT_EPOCH": 23663, "BSTAR": 0.00016974661, "MEAN_MOTION_DOT": -2.2e-07, "MEAN_MOTION_DDOT": 0}, "tle": {"line1": "1 46984U 20086A   25348.20168444 -.00000022  00000+0  16975-3 0  9993", "line2": "2 46984  66.0389 159.2715 0007728 269.2435  90.7695 12.80930703236639"}}, "geometry": {"type": "Point", "coordinates": [-45.74933144784033, 41.32379553934286]}}, {"type": "Feature", "properties": {"norad_id": 48079, "name": "GAOFEN-12 02", "group": "resource", "lat": -32.903535561573435, "lon": -11.62676294778457, "alt_km": 634.8928244856961, "timestamp": "2025-12-15T04:01:20.100579+00:00", "meta": {"OBJECT_NAME": "GAOFEN-12 02", "OBJECT_ID": "2021-026A", "EPOCH": "2025-12-14T07:05:16.745280", "MEAN_MOTION": 14.80677513, "ECCENTRICITY": 0.00035742, "INCLINATION": 97.9852, "RA_OF_ASC_NODE": 342.2942, "ARG_OF_PERICENTER": 97.9701, "MEAN_ANOMALY": 262.1917, "EPHEMERIS_TYPE": 0, "CLASSIFICATION_TYPE": "U", "NORAD_CAT_ID": 48079, "ELEMENT_SET_NO": 999, "REV_AT_EPOCH": 25440, "BSTAR": 0.00010282287, "MEAN_MOTION_DOT": 7.38e-06, "MEAN_MOTION_DDOT": 0}, "tle": {"line1": "1 48079U 21026A   25348.29533270  .00000738  00000+0  10282-3 0  9995", "line2": "2 48079  97.9852 342.2942 0003574  97.9701 262.1917 14.80677513254403"}}, "geometry": {"type": "Point", "coordinates": [-11.62676294778457, -32.903535561573435]}}, {"type": "Feature", "properties": {"norad_id": 48268, "name": "PLEIADES NEO 3", "group": "resource", "lat": 41.93842644122361, "lon": 54.411735912939086, "alt_km": 620.1192687396378, "timestamp": "2025-12-15T04:01:20.100589+00:00", "meta": {"OBJECT_NAME": "PLEIADES NEO 3", "OBJECT_ID": "2021-034A", "EPOCH": "2025-12-14T18:06:24.149952", "MEAN_MOTION": 14.8167122, "ECCENTRICITY": 0.0001333, "INCLINATION": 97.8948, "RA_OF_ASC_NODE": 61.1664, "ARG_OF_PERICENTER": 97.6005, "MEAN_ANOMALY": 262.5359, "EPHEMERIS_TYPE": 0, "CLASSIFICATION_TYPE": "U", "NORAD_CAT_ID": 48268, "ELEMENT_SET_NO": 999, "REV_AT_EPOCH": 25034, "BSTAR": 0.00019752, "MEAN_MOTION_DOT": 1.503e-05, "MEAN_MOTION_DDOT": 0}, "tle": {"line1": "1 48268U 21034A   25348.75444618  .00001503  00000+0  19752-3 0  9994", "line2": "2 48268  97.8948  61.1664 0001333  97.6005 262.5359 14.81671220250344"}}, "geometry": {"type": "Point", "coordinates": [54.411735912939086, 41.93842644122361]}}, {"type": "Feature", "properties": {"norad_id": 49070, "name": "PLEIADES NEO 4", "group": "resource", "lat": -42.23559458173391, "lon": -125.6675165792308, "alt_km": 631.3312064331085, "timestamp": "2025-12-15T04:01:20.100599+00:00", "meta": {"OBJECT_NAME": "PLEIADES NEO 4", "OBJECT_ID": "2021-073E", "EPOCH": "2025-12-12T08:34:07.569120", "MEAN_MOTION": 14.81676895, "ECCENTRICITY": 0.00012379, "INCLINATION": 97.8941, "RA_OF_ASC_NODE": 58.7994, "ARG_OF_PERICENTER": 92.1719, "MEAN_ANOMALY": 267.9635, "EPHEMERIS_TYPE": 0, "CLASSIFICATION_TYPE": "U", "NORAD_CAT_ID": 49070, "ELEMENT_SET_NO": 999, "REV_AT_EPOCH": 23370, "BSTAR": 3.8133e-06, "MEAN_MOTION_DOT": -2.2e-07, "MEAN_MOTION_DDOT": 0}, "tle": {"line1": "1 49070U 21073E   25346.35703205 -.00000022  00000+0  38133-5 0  9995", "line2": "2 49070  97.8941  58.7994 0001237  92.1719 267.9635 14.81676895233702"}}, "geometry": {"type": "Point", "coordinates": [-125.6675165792308, -42.23559458173391]}}, {"type": "Feature", "properties": {"norad_id": 49260, "name": "LANDSAT 9", "group": "resource", "lat": 24.460039906380516, "lon": 53.47814083845092, "alt_km": 701.510740385158, "timestamp": "2025-12-15T04:01:20.100610+00:00", "meta": {"OBJECT_NAME": "LANDSAT 9", "OBJECT_ID": "2021-088A", "EPOCH": "2025-12-14T06:29:02.586912", "MEAN_MOTION": 14.57099885, "ECCENTRICITY": 0.00011583, "INCLINATION": 98.2094, "RA_OF_ASC_NODE": 56.3591, "ARG_OF_PERICENTER": 89.2114, "MEAN_ANOMALY": 270.9217, "EPHEMERIS_TYPE": 0, "CLASSIFICATION_TYPE": "U", "NORAD_CAT_ID": 49260, "ELEMENT_SET_NO": 999, "REV_AT_EPOCH": 22407, "BSTAR": 0.00014364516, "MEAN_MOTION_DOT": 6.02e-06, "MEAN_MOTION_DDOT": 0}, "tle": {"line1": "1 49260U 21088A   25348.27016883  .00000602  00000+0  14365-3 0  9996", "line2": "2 49260  98.2094  56.3591 0001158  89.2114 270.9217 14.57099885224073"}}, "geometry": {"type": "Point", "coordinates": [53.47814083845092, 24.460039906380516]}}]}